GPS BIIR-2  (PRN 13)    
1 24876U 97035A   24024.19232096 -.00000040  00000+0  00000+0 0  9998
2 24876  55.6262 132.8008 0075899  53.1714 307.5009  2.00565241194403
GPS BIIR-4  (PRN 20)    
1 26360U 00025A   24025.56438223 -.00000053  00000+0  00000+0 0  9997
2 26360  54.5509  54.7400 0040558 210.5111 150.4909  2.00560210173757
GPS BIIR-5  (PRN 22)    
1 26407U 00040A   24025.51462615  .00000045  00000+0  00000+0 0  9993
2 26407  55.1303 249.9021 0148374 294.0342 231.7267  2.00558141172426
GPS BIIR-8  (PRN 16)    
1 27663U 03005A   24025.34663611  .00000047  00000+0  00000+0 0  9994
2 27663  55.1710 249.7196 0137828  46.3177 135.2770  2.00557905153782
GPS BIIR-9  (PRN 21)    
1 27704U 03010A   24025.46064150 -.00000104  00000+0  00000+0 0  9997
2 27704  55.1150 359.5915 0253569 322.7973 158.3861  2.00557546152586
GPS BIIR-11 (PRN 19)    
1 28190U 04009A   24025.17636944 -.00000069  00000+0  00000+0 0  9990
2 28190  55.5746 310.7851 0092798 142.7927  73.3813  2.00562975145412
GPS BIIR-13 (PRN 02)    
1 28474U 04045A   24026.43849062 -.00000101  00000+0  00000+0 0  9999
2 28474  55.4428 359.9226 0164902 287.8445 166.7506  2.00538242140913
GPS BIIRM-1 (PRN 17)    
1 28874U 05038A   24024.59093728 -.00000066  00000+0  00000+0 0  9991
2 28874  55.6238 308.2646 0138913 282.7351 255.0858  2.00565697134283
GPS BIIRM-2 (PRN 31)    
1 29486U 06042A   24025.45513066  .00000022  00000+0  00000+0 0  9996
2 29486  54.6814 185.9811 0104724  36.4767 305.5669  2.00563215126864
GPS BIIRM-3 (PRN 12)    
1 29601U 06052A   24025.90796197  .00000044  00000+0  00000+0 0  9998
2 29601  55.1964 248.6660 0087099  80.4514 280.6053  2.00558205125938
GPS BIIRM-4 (PRN 15)    
1 32260U 07047A   24025.71541186 -.00000031  00000+0  00000+0 0  9990
2 32260  53.5323 116.1963 0152271  73.5872 288.0983  2.00571969119292
GPS BIIRM-5 (PRN 29)    
1 32384U 07062A   24024.80167655 -.00000067  00000+0  00000+0 0  9997
2 32384  55.7593 309.0984 0024250 148.6582  39.7298  2.00566146117979
GPS BIIRM-6 (PRN 07)    
1 32711U 08012A   24025.63280300  .00000020  00000+0  00000+0 0  9990
2 32711  54.4515 184.7718 0180511 236.8954 121.3225  2.00562899116239
GPS BIIRM-8 (PRN 05)    
1 35752U 09043A   24025.61994076 -.00000045  00000+0  00000+0 0  9991
2 35752  55.5533  61.9974 0055368  69.7763 293.7343  2.00549725105844
GPS BIIF-1  (PRN 25)    
1 36585U 10022A   24026.23235351  .00000044  00000+0  00000+0 0  9996
2 36585  54.5009 243.7735 0115675  60.8017 148.1447  2.00569456100074
GPS BIIF-3  (PRN 24)    
1 38833U 12053A   24025.30605038  .00000012  00000+0  00000+0 0  9995
2 38833  53.5148 179.3477 0148976  54.7718 306.5678  2.00556321 81916
GPS BIIF-4  (PRN 27)    
1 39166U 13023A   24025.17185208 -.00000057  00000+0  00000+0 0  9990
2 39166  55.2364 304.3807 0121055  42.3646 318.5993  2.00563527 78357
GPS BIIF-5  (PRN 30)    
1 39533U 14008A   24025.17479531  .00000020  00000+0  00000+0 0  9996
2 39533  53.5995 184.9308 0068622 215.9253 143.5753  2.00559844 72155
GPS BIIF-6  (PRN 06)    
1 39741U 14026A   24025.95449798 -.00000097  00000+0  00000+0 0  9990
2 39741  56.7107   5.4188 0032991 311.5631  48.1511  2.00578536 71017
GPS BIIF-7  (PRN 09)    
1 40105U 14045A   24025.04373920 -.00000036  00000+0  00000+0 0  9993
2 40105  54.8687 123.3693 0026395 117.4340 242.8361  2.00556180 68548
GPS BIIF-8  (PRN 03)    
1 40294U 14068A   24025.90775161 -.00000040  00000+0  00000+0 0  9990
2 40294  56.2988  64.8354 0048465  60.1407 300.4122  2.00550512 67672
GPS BIIF-9  (PRN 26)    
1 40534U 15013A   24025.05449339  .00000053  00000+0  00000+0 0  9992
2 40534  53.3997 240.3725 0086637  28.6198 331.9192  2.00574506 64299
GPS BIIF-10 (PRN 08)    
1 40730U 15033A   24026.21292597 -.00000053  00000+0  00000+0 0  9994
2 40730  54.7213 302.8829 0091803  16.2719 344.0643  2.00574585 62500
GPS BIIF-11 (PRN 10)    
1 41019U 15062A   24025.26782435 -.00000041  00000+0  00000+0 0  9993
2 41019  56.2804  64.7126 0094509 224.2465 135.0624  2.00562405 60304
GPS BIIF-12 (PRN 32)    
1 41328U 16007A   24026.34874868 -.00000020  00000+0  00000+0 0  9995
2 41328  55.0691 124.1277 0076412 235.5043 123.7813  2.00568885 58372
GPS BIII-1  (PRN 04)    
1 43873U 18109A   24025.50674164 -.00000029  00000+0  00000+0 0  9990
2 43873  55.2424 126.7066 0028486 192.7695 173.8254  2.00573381 37553
GPS BIII-2  (PRN 18)    
1 44506U 19056A   24026.39026233 -.00000097  00000+0  00000+0 0  9997
2 44506  55.8388   5.7347 0038739 190.7000 350.6708  2.00569259 32553
GPS BIII-3  (PRN 23)    
1 45854U 20041A   24026.32517443 -.00000042  00000+0  00000+0 0  9991
2 45854  56.0033  63.0441 0040064 192.8491 242.3151  2.00560499 26529
GPS BIII-4  (PRN 14)    
1 46826U 20078A   24022.00858840  .00000066  00000+0  00000+0 0  9996
2 46826  54.2429 246.3883 0039285 193.2437 341.9791  2.00561945 23915
GPS BIII-5  (PRN 11)    
1 48859U 21054A   24024.25241479 -.00000099  00000+0  00000+0 0  9999
2 48859  55.3597   7.5377 0014259 225.8962 314.5188  2.00566253 19205
GPS BIII-6  (PRN 28)    
1 55268U 23009A   24025.19632839  .00000019  00000+0  00000+0 0  9992
2 55268  55.0882 182.8113 0004788 102.1347  77.9538  2.00574555  7712
